NORAD_CAT_ID,OBJECT_NAME,OBJECT_TYPE,EPOCH,MEAN_MOTION,ECCENTRICITY,INCLINATION,RA_OF_ASC_NODE,ARG_OF_PERICENTER,MEAN_ANOMALY,BSTAR,MEAN_MOTION_DOT,MEAN_MOTION_DDOT,TLE_LINE0,TLE_LINE1,TLE_LINE2,SEMIMAJOR_AXIS,PERIOD,APOGEE,PERIGEE,DECAYED
53424.0,STARLINK-4532,PAYLOAD,2024-06-24 20:51:17,15.0884107,0.0001331,53.2172,30.0726,103.7287,256.3853,4.7793e-05,4.73e-06,0.0,0 STARLINK-4532,1 53424U 22097AN  24176.86895337  .00000473  00000-0  47793-4 0  9995,2 53424  53.2172  30.0726 0001331 103.7287 256.3853 15.08841070104140,6917.877,95.437,540.663,538.821,0.0
53424.0,STARLINK-4532,PAYLOAD,2024-06-25 19:06:41,15.0883983,0.000136,53.2173,25.9114,101.3468,258.7677,7.4356e-05,8.96e-06,0.0,0 STARLINK-4532,1 53424U 22097AN  24177.79631447  .00000896  00000-0  74356-4 0  9992,2 53424  53.2173  25.9114 0001360 101.3468 258.7677 15.08839830104761,6917.881,95.438,540.687,538.805,0.0
53424.0,STARLINK-4532,PAYLOAD,2024-06-25 22:17:27,15.08843713,0.0001402,53.2182,25.3155,107.0918,253.0227,8.2463e-05,1.025e-05,0.0,0 STARLINK-4532,1 53424U 22097AN  24177.92879099  .00001025  00000-0  82463-4 0  9997,2 53424  53.2182  25.3155 0001402 107.0918 253.0227 15.08843713104304,6917.869,95.437,540.704,538.764,0.0
53424.0,STARLINK-4532,PAYLOAD,2024-06-27 06:05:10,15.08840605,0.0001374,53.2188,19.3684,89.7502,270.3648,0.00011069,1.474e-05,0.0,0 STARLINK-4532,1 53424U 22097AN  24179.25359502  .00001474  00000-0  11069-3 0  9998,2 53424  53.2188  19.3684 0001374  89.7502 270.3648 15.08840605104501,6917.879,95.438,540.694,538.793,0.0
53424.0,STARLINK-4532,PAYLOAD,2024-06-27 18:48:16,15.08827793,0.0001379,53.2187,16.9915,92.4682,267.6468,-7.3033e-05,-1.45e-05,0.0,0 STARLINK-4532,1 53424U 22097AN  24179.78352932 -.00001450  00000-0 -73033-4 0  9992,2 53424  53.2187  16.9915 0001379  92.4682 267.6468 15.08827793104585,6917.918,95.438,540.737,538.829,0.0
53424.0,STARLINK-4532,PAYLOAD,2024-06-28 05:55:57,15.08843019,0.0001211,53.2187,14.9082,82.2067,277.9062,7.2237e-05,8.62e-06,0.0,0 STARLINK-4532,1 53424U 22097AN  24180.24719695  .00000862  00000-0  72237-4 0  9997,2 53424  53.2187  14.9082 0001211  82.2067 277.9062 15.08843019104658,6917.871,95.437,540.574,538.898,0.0
53424.0,STARLINK-4532,PAYLOAD,2024-06-28 20:14:25,15.08842385,0.0001092,53.2172,12.2319,102.2481,257.8633,0.00028628,4.272e-05,0.0,0 STARLINK-4532,1 53424U 22097AN  24180.84334921  .00004272  00000-0  28628-3 0  9991,2 53424  53.2172  12.2319 0001092 102.2481 257.8633 15.08842385105226,6917.873,95.437,540.494,538.983,0.0
53424.0,STARLINK-4532,PAYLOAD,2024-06-29 05:46:44,15.08843503,0.0001143,53.2175,10.4467,83.3675,276.7447,0.00027354,4.069e-05,0.0,0 STARLINK-4532,1 53424U 22097AN  24181.24079069  .00004069  00000-0  27354-3 0  9994,2 53424  53.2175  10.4467 0001143  83.3675 276.7447 15.08843503105286,6917.87,95.437,540.525,538.944,0.0
53424.0,STARLINK-4532,PAYLOAD,2024-06-29 20:05:15,15.08824319,0.0001143,53.2181,7.77,84.1767,275.9355,-9.0448e-05,-1.726e-05,0.0,0 STARLINK-4532,1 53424U 22097AN  24181.83697964 -.00001726  00000-0 -90448-4 0  9993,2 53424  53.2181   7.7700 0001143  84.1767 275.9355 15.08824319104892,6917.928,95.439,540.584,539.003,0.0
53424.0,STARLINK-4532,PAYLOAD,2024-06-29 21:40:37,15.08831063,0.0001111,53.2185,7.4748,92.7335,267.3785,-3.4246e-05,-8.33e-06,0.0,0 STARLINK-4532,1 53424U 22097AN  24181.90321457 -.00000833  00000-0 -34246-4 0  9994,2 53424  53.2185   7.4748 0001111  92.7335 267.3785 15.08831063105387,6917.908,95.438,540.541,539.004,0.0
53424.0,STARLINK-4532,PAYLOAD,2024-06-30 05:37:32,15.08838089,0.000119,53.2184,5.9875,89.6434,270.4694,2.7765e-05,1.54e-06,0.0,0 STARLINK-4532,1 53424U 22097AN  24182.23440972  .00000154  00000-0  27765-4 0  9997,2 53424  53.2184   5.9875 0001190  89.6434 270.4694 15.08838089104953,6917.886,95.438,540.574,538.928,0.0
53424.0,STARLINK-4532,PAYLOAD,2024-06-30 18:20:37,15.08844343,0.0001259,53.2187,3.6081,89.2204,270.8932,0.00016456,2.332e-05,0.0,0 STARLINK-4532,1 53424U 22097AN  24182.76432494  .00002332  00000-0  16456-3 0  9999,2 53424  53.2187   3.6081 0001259  89.2204 270.8932 15.08844343105519,6917.867,95.437,540.603,538.861,0.0
53424.0,STARLINK-4532,PAYLOAD,2024-07-01 11:49:52,15.08833743,0.0001476,53.2177,0.3361,94.7993,265.3168,0.00028478,4.246e-05,0.0,0 STARLINK-4532,1 53424U 22097AN  24183.49297019  .00004246  00000-0  28478-3 0  9995,2 53424  53.2177   0.3361 0001476  94.7993 265.3168 15.08833743105141,6917.9,95.438,540.786,538.743,0.0
53424.0,STARLINK-4532,PAYLOAD,2024-07-01 18:11:24,15.08838181,0.0001247,53.2164,359.1475,93.7484,266.3651,0.00028462,4.245e-05,0.0,0 STARLINK-4532,1 53424U 22097AN  24183.75792816  .00004245  00000-0  28462-3 0  9991,2 53424  53.2164 359.1475 0001247  93.7484 266.3651 15.08838181105664,6917.886,95.438,540.614,538.888,0.0
53424.0,STARLINK-4532,PAYLOAD,2024-07-02 05:19:06,15.08851601,0.0001108,53.2179,357.0669,88.6518,271.4601,0.00024621,3.634e-05,0.0,0 STARLINK-4532,1 53424U 22097AN  24184.22160007  .00003634  00000-0  24621-3 0  9999,2 53424  53.2179 357.0669 0001108  88.6518 271.4601 15.08851601105258,6917.845,95.437,540.476,538.943,0.0
53424.0,STARLINK-4532,PAYLOAD,2024-07-02 14:51:25,15.08836852,0.0001078,53.2177,355.2813,98.0334,262.0781,-0.00014087,-2.529e-05,0.0,0 STARLINK-4532,1 53424U 22097AN  24184.61904457 -.00002529  00000-0 -14087-3 0  9996,2 53424  53.2177 355.2813 0001078  98.0334 262.0781 15.08836852105799,6917.89,95.438,540.501,539.009,0.0
53424.0,STARLINK-4532,PAYLOAD,2024-07-02 18:02:11,15.08840751,0.0001171,53.2182,354.6874,91.3001,268.8125,-4.2749e-05,-9.68e-06,0.0,0 STARLINK-4532,1 53424U 22097AN  24184.75152387 -.00000968  00000-0 -42749-4 0  9990,2 53424  53.2182 354.6874 0001171  91.3001 268.8125 15.08840751105335,6917.878,95.438,540.553,538.933,0.0
53424.0,STARLINK-4532,PAYLOAD,2024-07-02 21:12:57,15.0884369,0.000105,53.2179,354.0905,92.0391,268.0722,-3.0932e-05,-7.8e-06,0.0,0 STARLINK-4532,1 53424U 22097AN  24184.88400177 -.00000780  00000-0 -30932-4 0  9990,2 53424  53.2179 354.0905 0001050  92.0391 268.0722 15.08843690105831,6917.869,95.437,540.46,539.008,0.0
53424.0,STARLINK-4532,PAYLOAD,2024-07-03 21:03:45,15.08840427,0.0001021,53.2176,349.6317,81.9026,278.2081,0.00012827,1.754e-05,0.0,0 STARLINK-4532,1 53424U 22097AN  24185.87760666  .00001754  00000-0  12827-3 0  9994,2 53424  53.2176 349.6317 0001021  81.9026 278.2081 15.08840427105987,6917.879,95.438,540.45,539.038,0.0
53424.0,STARLINK-4532,PAYLOAD,2024-07-04 03:25:17,15.08848678,0.0001055,53.218,348.4437,84.3141,275.7971,0.00026898,3.997e-05,0.0,0 STARLINK-4532,1 53424U 22097AN  24186.14256328  .00003997  00000-0  26898-3 0  9994,2 53424  53.2180 348.4437 0001055  84.3141 275.7971 15.08848678105542,6917.854,95.437,540.449,538.989,0.0
53424.0,STARLINK-4532,PAYLOAD,2024-07-04 14:33:00,15.08835945,0.0001458,53.2184,346.3633,90.2115,269.9044,0.00011616,1.561e-05,0.0,0 STARLINK-4532,1 53424U 22097AN  24186.60625030  .00001561  00000-0  11616-3 0  9992,2 53424  53.2184 346.3633 0001458  90.2115 269.9044 15.08835945106095,6917.893,95.438,540.766,538.749,0.0
53424.0,STARLINK-4532,PAYLOAD,2024-07-04 17:43:46,15.08838259,0.0001136,53.2189,345.7721,98.0159,262.0962,0.00013954,1.934e-05,0.0,0 STARLINK-4532,1 53424U 22097AN  24186.73872922  .00001934  00000-0  13954-3 0  9991,2 53424  53.2189 345.7721 0001136  98.0159 262.0962 15.08838259105631,6917.886,95.438,540.537,538.965,0.0
53424.0,STARLINK-4532,PAYLOAD,2024-07-05 03:16:04,15.08855186,0.0001024,53.2175,343.9804,76.4906,283.62,0.00037474,5.684e-05,0.0,0 STARLINK-4532,1 53424U 22097AN  24187.13616057  .00005684  00000-0  37474-3 0  9990,2 53424  53.2175 343.9804 0001024  76.4906 283.6200 15.08855186105692,6917.834,95.437,540.407,538.991,0.0
53424.0,STARLINK-4532,PAYLOAD,2024-07-05 09:37:37,15.08844388,0.0001851,53.2179,342.7922,91.8295,268.2909,0.00014907,2.085e-05,0.0,0 STARLINK-4532,1 53424U 22097AN  24187.40112630  .00002085  00000-0  14907-3 0  9996,2 53424  53.2179 342.7922 0001851  91.8295 268.2909 15.08844388105736,6917.867,95.437,541.012,538.451,0.0
53424.0,STARLINK-4532,PAYLOAD,2024-07-05 14:23:46,15.08838405,0.0001536,53.2191,341.9017,87.5157,272.6011,2.2034e-05,6.3e-07,0.0,0 STARLINK-4532,1 53424U 22097AN  24187.59984807  .00000063  00000-0  22034-4 0  9994,2 53424  53.2191 341.9017 0001536  87.5157 272.6011 15.08838405106248,6917.885,95.438,540.813,538.688,0.0
53424.0,STARLINK-4532,PAYLOAD,2024-07-05 17:34:33,15.08841687,0.0001025,53.2176,341.3079,87.0675,273.0435,0.00010005,1.305e-05,0.0,0 STARLINK-4532,1 53424U 22097AN  24187.73232642  .00001305  00000-0  10005-3 0  9997,2 53424  53.2176 341.3079 0001025  87.0675 273.0435 15.08841687106269,6917.875,95.437,540.449,539.031,0.0
53424.0,STARLINK-4532,PAYLOAD,2024-07-06 09:28:24,15.0884224,0.0002295,53.2182,338.3336,81.9013,278.2239,9.5284e-05,1.229e-05,0.0,0 STARLINK-4532,1 53424U 22097AN  24188.39472773  .00001229  00000-0  95284-4 0  9999,2 53424  53.2182 338.3336 0002295  81.9013 278.2239 15.08842240105889,6917.874,95.437,541.326,538.151,0.0
53424.0,STARLINK-4532,PAYLOAD,2024-07-06 14:14:34,15.08830298,0.0001158,53.2196,337.4437,93.0401,267.0724,-0.00016691,-2.942e-05,0.0,0 STARLINK-4532,1 53424U 22097AN  24188.59344963 -.00002942  00000-0 -16691-3 0  9999,2 53424  53.2196 337.4437 0001158  93.0401 267.0724 15.08830298106390,6917.91,95.438,540.576,538.974,0.0
53424.0,STARLINK-4532,PAYLOAD,2024-07-06 20:36:06,15.08840853,0.0001286,53.218,336.2518,87.7989,272.315,0.00061438,9.504e-05,0.0,0 STARLINK-4532,1 53424U 22097AN  24188.85840871  .00009504  00000-0  61438-3 0  9995,2 53424  53.2180 336.2518 0001286  87.7989 272.3150 15.08840853106438,6917.878,95.438,540.632,538.853,0.0
53424.0,STARLINK-4532,PAYLOAD,2024-07-07 09:19:11,15.08837018,0.0001379,53.2184,333.8739,82.4402,277.6747,0.00043809,6.691e-05,0.0,0 STARLINK-4532,1 53424U 22097AN  24189.38833310  .00006691  00000-0  43809-3 0  9990,2 53424  53.2184 333.8739 0001379  82.4402 277.6747 15.08837018106030,6917.89,95.438,540.708,538.801,0.0
